{"type": "FeatureCollection", "features": [ {"type": "Feature", "properties": {"norad_id": 34790, "name": "COSMOS 2251 DEB", "group": "cosmos-2251-debris", "lat": 70.55854819214147, "lon": -5.83137854706177, "alt_km": 874.1950463626999, "timestamp": "2025-12-21T07:34:34.909640+00:00", "meta": {"OBJECT_NAME": "COSMOS 2251 DEB", "OBJECT_ID": "1993-036AAT", "EPOCH": "2025-12-20T03:10:44.601024", "MEAN_MOTION": 14.24656104, "ECCENTRICITY": 0.01005224, "INCLINATION": 74.0538, "RA_OF_ASC_NODE": 230.3962, "ARG_OF_PERICENTER": 290.5432, "MEAN_ANOMALY": 224.5062, "EPHEMERIS_TYPE": 0, "CLASSIFICATION_TYPE": "U", "NORAD_CAT_ID": 34790, "ELEMENT_SET_NO": 999, "REV_AT_EPOCH": 86678, "BSTAR": 0.00041671452, "MEAN_MOTION_DOT": 9.95e-06, "MEAN_MOTION_DDOT": 0}, "tle": {"line1": "1 34790U 93036AAT 25354.13246066  .00000995  00000+0  41671-3 0  9995", "line2": "2 34790  74.0538 230.3962 0100522 290.5432 224.5062 14.24656104866781"}}, "geometry": {"type": "Point", "coordinates": [-5.83137854706177, 70.55854819214147]}}, {"type": "Feature", "properties": {"norad_id": 34792, "name": "COSMOS 2251 DEB", "group": "cosmos-2251-debris", "lat": -59.653326808271984, "lon": 124.12058947918244, "alt_km": 707.0091471591313, "timestamp": "2025-12-21T07:34:34.909664+00:00", "meta": {"OBJECT_NAME": "COSMOS 2251 DEB", "OBJECT_ID": "1993-036AAV", "EPOCH": "2025-12-20T12:20:32.087328", "MEAN_MOTION": 14.56013291, "ECCENTRICITY": 0.0012416, "INCLINATION": 74.0171, "RA_OF_ASC_NODE": 154.9529, "ARG_OF_PERICENTER": 249.388, "MEAN_ANOMALY": 167.642, "EPHEMERIS_TYPE": 0, "CLASSIFICATION_TYPE": "U", "NORAD_CAT_ID": 34792, "ELEMENT_SET_NO": 999, "REV_AT_EPOCH": 87763, "BSTAR": 0.00068570227, "MEAN_MOTION_DOT": 2.993e-05, "MEAN_MOTION_DDOT": 0}, "tle": {"line1": "1 34792U 93036AAV 25354.51426027  .00002993  00000+0  68570-3 0  9993", "line2": "2 34792  74.0171 154.9529 0012416 249.3880 167.6420 14.56013291877639"}}, "geometry": {"type": "Point", "coordinates": [124.12058947918244, -59.653326808271984]}}, {"type": "Feature", "properties": {"norad_id": 34793, "name": "COSMOS 2251 DEB", "group": "cosmos-2251-debris", "lat": -70.9355751002881, "lon": 110.6389248327152, "alt_km": 791.5070990529421, "timestamp": "2025-12-21T07:34:34.909674+00:00", "meta": {"OBJECT_NAME": "COSMOS 2251 DEB", "OBJECT_ID": "1993-036AAW", "EPOCH": "2025-12-20T20:56:39.902784", "MEAN_MOTION": 14.38656472, "ECCENTRICITY": 0.00506438, "INCLINATION": 74.0021, "RA_OF_ASC_NODE": 235.3419, "ARG_OF_PERICENTER": 27.3695, "MEAN_ANOMALY": 99.1443, "EPHEMERIS_TYPE": 0, "CLASSIFICATION_TYPE": "U", "NORAD_CAT_ID": 34793, "ELEMENT_SET_NO": 999, "REV_AT_EPOCH": 87447, "BSTAR": 0.00017054564, "MEAN_MOTION_DOT": 5.04e-06, "MEAN_MOTION_DDOT": 0}, "tle": {"line1": "1 34793U 93036AAW 25354.87268406  .00000504  00000+0  17055-3 0  9996", "line2": "2 34793  74.0021 235.3419 0050643  27.3695  99.1443 14.38656472874475"}}, "geometry": {"type": "Point", "coordinates": [110.6389248327152, -70.9355751002881]}}, {"type": "Feature", "properties": {"norad_id": 34796, "name": "COSMOS 2251 DEB", "group": "cosmos-2251-debris", "lat": -52.65371289732666, "lon": 178.222115393343, "alt_km": 665.2987555163145, "timestamp": "2025-12-21T07:34:34.909683+00:00", "meta": {"OBJECT_NAME": "COSMOS 2251 DEB", "OBJECT_ID": "1993-036AAZ", "EPOCH": "2025-12-20T20:18:01.715616", "MEAN_MOTION": 14.48723877, "ECCENTRICITY": 0.01002858, "INCLINATION": 74.0288, "RA_OF_ASC_NODE": 201.1462, "ARG_OF_PERICENTER": 301.4572, "MEAN_ANOMALY": 73.4002, "EPHEMERIS_TYPE": 0, "CLASSIFICATION_TYPE": "U", "NORAD_CAT_ID": 34796, "ELEMENT_SET_NO": 999, "REV_AT_EPOCH": 88145, "BSTAR": 0.00035757486, "MEAN_MOTION_DOT": 1.406e-05, "MEAN_MOTION_DDOT": 0}, "tle": {"line1": "1 34796U 93036AAZ 25354.84585319  .00001406  00000+0  35757-3 0  9992", "line2": "2 34796  74.0288 201.1462 0100285 301.4572  73.4002 14.48723877881457"}}, "geometry": {"type": "Point", "coordinates": [178.222115393343, -52.65371289732666]}}, {"type": "Feature", "properties": {"norad_id": 34797, "name": "COSMOS 2251 DEB", "group": "cosmos-2251-debris", "lat": -63.36490748722166, "lon": -61.037530314513944, "alt_km": 724.4286861793798, "timestamp": "2025-12-21T07:34:34.909692+00:00", "meta": {"OBJECT_NAME": "COSMOS 2251 DEB", "OBJECT_ID": "1993-036ABA", "EPOCH": "2025-12-18T13:32:08.695392", "MEAN_MOTION": 14.42903821, "ECCENTRICITY": 0.00713736, "INCLINATION": 73.9783, "RA_OF_ASC_NODE": 89.1324, "ARG_OF_PERICENTER": 201.7042, "MEAN_ANOMALY": 158.1087, "EPHEMERIS_TYPE": 0, "CLASSIFICATION_TYPE": "U", "NORAD_CAT_ID": 34797, "ELEMENT_SET_NO": 999, "REV_AT_EPOCH": 87499, "BSTAR": 0.0016985088, "MEAN_MOTION_DOT": 5.83e-05, "MEAN_MOTION_DDOT": 0}, "tle": {"line1": "1 34797U 93036ABA 25352.56398953  .00005830  00000+0  16985-2 0  9992", "line2": "2 34797  73.9783  89.1324 0071373 201.7042 158.1087 14.42903821874994"}}, "geometry": {"type": "Point", "coordinates": [-61.037530314513944, -63.36490748722166]}}, {"type": "Feature", "properties": {"norad_id": 34814, "name": "COSMOS 2251 DEB", "group": "cosmos-2251-debris", "lat": 44.25285059651297, "lon": -34.11972179943907, "alt_km": 799.2060220571484, "timestamp": "2025-12-21T07:34:34.909701+00:00", "meta": {"OBJECT_NAME": "COSMOS 2251 DEB", "OBJECT_ID": "1993-036ABD", "EPOCH": "2025-12-20T15:30:26.921088", "MEAN_MOTION": 14.36924529, "ECCENTRICITY": 0.0055669, "INCLINATION": 73.8958, "RA_OF_ASC_NODE": 310.7738, "ARG_OF_PERICENTER": 198.7366, "MEAN_ANOMALY": 346.1434, "EPHEMERIS_TYPE": 0, "CLASSIFICATION_TYPE": "U", "NORAD_CAT_ID": 34814, "ELEMENT_SET_NO": 999, "REV_AT_EPOCH": 87446, "BSTAR": 0.00047694, "MEAN_MOTION_DOT": 1.41e-05, "MEAN_MOTION_DDOT": 0}, "tle": {"line1": "1 34814U 93036ABD 25354.64614492  .00001410  00000+0  47694-3 0  9994", "line2": "2 34814  73.8958 310.7738 0055669 198.7366 346.1434 14.36924529874461"}}, "geometry": {"type": "Point", "coordinates": [-34.11972179943907, 44.25285059651297]}}, {"type": "Feature", "properties": {"norad_id": 34815, "name": "COSMOS 2251 DEB", "group": "cosmos-2251-debris", "lat": 39.335650671672994, "lon": -121.47854606098245, "alt_km": 644.3285204625481, "timestamp": "2025-12-21T07:34:34.909710+00:00", "meta": {"OBJECT_NAME": "COSMOS 2251 DEB", "OBJECT_ID": "1993-036ABE", "EPOCH": "2025-12-20T21:38:46.285440", "MEAN_MOTION": 14.78397435, "ECCENTRICITY": 0.00588214, "INCLINATION": 74.0441, "RA_OF_ASC_NODE": 225.7732, "ARG_OF_PERICENTER": 293.139, "MEAN_ANOMALY": 66.3593, "EPHEMERIS_TYPE": 0, "CLASSIFICATION_TYPE": "U", "NORAD_CAT_ID": 34815, "ELEMENT_SET_NO": 999, "REV_AT_EPOCH": 88748, "BSTAR": 0.00047586916, "MEAN_MOTION_DOT": 3.533e-05, "MEAN_MOTION_DDOT": 0}, "tle": {"line1": "1 34815U 93036ABE 25354.90192460  .00003533  00000+0  47587-3 0  9999", "line2": "2 34815  74.0441 225.7732 0058821 293.1390  66.3593 14.78397435887480"}}, "geometry": {"type": "Point", "coordinates": [-121.47854606098245, 39.335650671672994]}}, {"type": "Feature", "properties": {"norad_id": 34816, "name": "COSMOS 2251 DEB", "group": "cosmos-2251-debris", "lat": -67.30646627088488, "lon": -7.142146281596657, "alt_km": 909.2855400490662, "timestamp": "2025-12-21T07:34:34.909719+00:00", "meta": {"OBJECT_NAME": "COSMOS 2251 DEB", "OBJECT_ID": "1993-036ABF", "EPOCH": "2025-12-19T19:45:52.299072", "MEAN_MOTION": 13.58341455, "ECCENTRICITY": 0.03732066, "INCLINATION": 73.8867, "RA_OF_ASC_NODE": 131.5634, "ARG_OF_PERICENTER": 194.8145, "MEAN_ANOMALY": 321.2377, "EPHEMERIS_TYPE": 0, "CLASSIFICATION_TYPE": "U", "NORAD_CAT_ID": 34816, "ELEMENT_SET_NO": 999, "REV_AT_EPOCH": 82879, "BSTAR": 0.00094697694, "MEAN_MOTION_DOT": 1.062e-05, "MEAN_MOTION_DDOT": 0}, "tle": {"line1": "1 34816U 93036ABF 25353.82352198  .00001062  00000+0  94698-3 0  9996", "line2": "2 34816  73.8867 131.5634 0373206 194.8145 321.2377 13.58341455828797"}}, "geometry": {"type": "Point", "coordinates": [-7.142146281596657, -67.30646627088488]}}, {"type": "Feature", "properties": {"norad_id": 34818, "name": "COSMOS 2251 DEB", "group": "cosmos-2251-debris", "lat": 55.929378805748804, "lon": 76.13059305802366, "alt_km": 772.9726156764054, "timestamp": "2025-12-21T07:34:34.909729+00:00", "meta": {"OBJECT_NAME": "COSMOS 2251 DEB", "OBJECT_ID": "1993-036ABH", "EPOCH": "2025-12-20T21:17:38.938272", "MEAN_MOTION": 14.36975982, "ECCENTRICITY": 0.00245739, "INCLINATION": 74.0362, "RA_OF_ASC_NODE": 281.9581, "ARG_OF_PERICENTER": 355.877, "MEAN_ANOMALY": 68.939, "EPHEMERIS_TYPE": 0, "CLASSIFICATION_TYPE": "U", "NORAD_CAT_ID": 34818, "ELEMENT_SET_NO": 999, "REV_AT_EPOCH": 87487, "BSTAR": 0.00014247136, "MEAN_MOTION_DOT": 3.97e-06, "MEAN_MOTION_DDOT": 0}, "tle": {"line1": "1 34818U 93036ABH 25354.88725623  .00000397  00000+0  14247-3 0  9994", "line2": "2 34818  74.0362 281.9581 0024573 355.8770  68.9390 14.36975982874871"}}, "geometry": {"type": "Point", "coordinates": [76.13059305802366, 55.929378805748804]}}, {"type": "Feature", "properties": {"norad_id": 34819, "name": "COSMOS 2251 DEB", "group": "cosmos-2251-debris", "lat": 26.222551438106205, "lon": -61.94350175685672, "alt_km": 674.7003537978617, "timestamp": "2025-12-21T07:34:34.909739+00:00", "meta": {"OBJECT_NAME": "COSMOS 2251 DEB", "OBJECT_ID": "1993-036ABJ", "EPOCH": "2025-12-20T09:50:49.162272", "MEAN_MOTION": 14.64072467, "ECCENTRICITY": 0.00155371, "INCLINATION": 74.018, "RA_OF_ASC_NODE": 127.9117, "ARG_OF_PERICENTER": 222.8872, "MEAN_ANOMALY": 199.7592, "EPHEMERIS_TYPE": 0, "CLASSIFICATION_TYPE": "U", "NORAD_CAT_ID": 34819, "ELEMENT_SET_NO": 999, "REV_AT_EPOCH": 88341, "BSTAR": 0.001010903, "MEAN_MOTION_DOT": 5.289e-05, "MEAN_MOTION_DDOT": 0}, "tle": {"line1": "1 34819U 93036ABJ 25354.41029123  .00005289  00000+0  10109-2 0  9993", "line2": "2 34819  74.0180 127.9117 0015537 222.8872 199.7592 14.64072467883414"}}, "geometry": {"type": "Point", "coordinates": [-61.94350175685672, 26.222551438106205]}}]}